{
  "type": "FeatureCollection",
  "features": [
    {
      "type": "Feature",
      "properties": {
        "norad_id": 33860,
        "name": "IRIDIUM 33 DEB",
        "group": "iridium-33-debris",
        "lat": -45.79506749663292,
        "lon": -155.07947338511875,
        "alt_km": 674.913000507263,
        "timestamp": "2025-12-26T09:30:54.024055+00:00",
        "meta_object_name": "IRIDIUM 33 DEB",
        "meta_object_id": "1997-051AD",
        "meta_epoch": "2025-12-26T02:11:16.037376",
        "meta_mean_motion": 14.6752687,
        "meta_eccentricity": 0.0006001,
        "meta_inclination": 86.3825,
        "meta_ra_of_asc_node": 21.3263,
        "meta_arg_of_pericenter": 304.5044,
        "meta_mean_anomaly": 109.5001,
        "meta_ephemeris_type": 0,
        "meta_classification_type": "U",
        "meta_norad_cat_id": 33860,
        "meta_element_set_no": 999,
        "meta_rev_at_epoch": 88918,
        "meta_bstar": 0.001134,
        "meta_mean_motion_dot": 6.452e-05,
        "meta_mean_motion_ddot": 0,
        "tle_line1": "1 33860U 97051AD  25360.09115784  .00006452  00000+0  11340-2 0  9990",
        "tle_line2": "2 33860  86.3825  21.3263 0006001 304.5044 109.5001 14.67526870889184"
      },
      "geometry": {
        "type": "Point",
        "coordinates": [
          -155.07947338511875,
          -45.79506749663292
        ]
      }
    },
    {
      "type": "Feature",
      "properties": {
        "norad_id": 33862,
        "name": "IRIDIUM 33 DEB",
        "group": "iridium-33-debris",
        "lat": 5.605493977128352,
        "lon": 31.85975420683374,
        "alt_km": 629.4702019564475,
        "timestamp": "2025-12-26T09:30:54.024067+00:00",
        "meta_object_name": "IRIDIUM 33 DEB",
        "meta_object_id": "1997-051AF",
        "meta_epoch": "2025-12-26T03:12:38.980800",
        "meta_mean_motion": 14.69690287,
        "meta_eccentricity": 0.0051963,
        "meta_inclination": 86.4084,
        "meta_ra_of_asc_node": 31.6224,
        "meta_arg_of_pericenter": 24.1481,
        "meta_mean_anomaly": 32.8938,
        "meta_ephemeris_type": 0,
        "meta_classification_type": "U",
        "meta_norad_cat_id": 33862,
        "meta_element_set_no": 999,
        "meta_rev_at_epoch": 89020,
        "meta_bstar": 0.0014362,
        "meta_mean_motion_dot": 8.756e-05,
        "meta_mean_motion_ddot": 0,
        "tle_line1": "1 33862U 97051AF  25360.13378450  .00008756  00000+0  14362-2 0  9994",
        "tle_line2": "2 33862  86.4084  31.6224 0051963  24.1481  32.8938 14.69690287890200"
      },
      "geometry": {
        "type": "Point",
        "coordinates": [
          31.85975420683374,
          5.605493977128352
        ]
      }
    },
    {
      "type": "Feature",
      "properties": {
        "norad_id": 33866,
        "name": "IRIDIUM 33 DEB",
        "group": "iridium-33-debris",
        "lat": 55.75292967621076,
        "lon": 92.7124306763747,
        "alt_km": 762.665668509545,
        "timestamp": "2025-12-26T09:30:54.024083+00:00",
        "meta_object_name": "IRIDIUM 33 DEB",
        "meta_object_id": "1997-051AK",
        "meta_epoch": "2025-12-25T18:40:33.881088",
        "meta_mean_motion": 14.25314214,
        "meta_eccentricity": 0.01153113,
        "meta_inclination": 86.2996,
        "meta_ra_of_asc_node": 87.5194,
        "meta_arg_of_pericenter": 120.0722,
        "meta_mean_anomaly": 6.5458,
        "meta_ephemeris_type": 0,
        "meta_classification_type": "U",
        "meta_norad_cat_id": 33866,
        "meta_element_set_no": 999,
        "meta_rev_at_epoch": 86996,
        "meta_bstar": 0.00059555081,
        "meta_mean_motion_dot": 1.523e-05,
        "meta_mean_motion_ddot": 0,
        "tle_line1": "1 33866U 97051AK  25359.77816992  .00001523  00000+0  59555-3 0  9993",
        "tle_line2": "2 33866  86.2996  87.5194 0115311 120.0722   6.5458 14.25314214869961"
      },
      "geometry": {
        "type": "Point",
        "coordinates": [
          92.7124306763747,
          55.75292967621076
        ]
      }
    },
    {
      "type": "Feature",
      "properties": {
        "norad_id": 33870,
        "name": "IRIDIUM 33 DEB",
        "group": "iridium-33-debris",
        "lat": 84.91280020175357,
        "lon": 97.84060901613009,
        "alt_km": 720.8034308257002,
        "timestamp": "2025-12-26T09:30:54.024096+00:00",
        "meta_object_name": "IRIDIUM 33 DEB",
        "meta_object_id": "1997-051AP",
        "meta_epoch": "2025-12-26T02:36:12.183840",
        "meta_mean_motion": 14.45916057,
        "meta_eccentricity": 0.0022736,
        "meta_inclination": 86.3733,
        "meta_ra_of_asc_node": 52.5296,
        "meta_arg_of_pericenter": 135.8216,
        "meta_mean_anomaly": 252.7253,
        "meta_ephemeris_type": 0,
        "meta_classification_type": "U",
        "meta_norad_cat_id": 33870,
        "meta_element_set_no": 999,
        "meta_rev_at_epoch": 88330,
        "meta_bstar": 0.00066477,
        "meta_mean_motion_dot": 2.39e-05,
        "meta_mean_motion_ddot": 0,
        "tle_line1": "1 33870U 97051AP  25360.10847435  .00002390  00000+0  66477-3 0  9997",
        "tle_line2": "2 33870  86.3733  52.5296 0022736 135.8216 252.7253 14.45916057883308"
      },
      "geometry": {
        "type": "Point",
        "coordinates": [
          97.84060901613009,
          84.91280020175357
        ]
      }
    },
    {
      "type": "Feature",
      "properties": {
        "norad_id": 33881,
        "name": "IRIDIUM 33 DEB",
        "group": "iridium-33-debris",
        "lat": 54.3320869663468,
        "lon": -84.24554871124656,
        "alt_km": 655.2949464406483,
        "timestamp": "2025-12-26T09:30:54.024107+00:00",
        "meta_object_name": "IRIDIUM 33 DEB",
        "meta_object_id": "1997-051BA",
        "meta_epoch": "2025-12-24T19:37:00.349824",
        "meta_mean_motion": 14.5678795,
        "meta_eccentricity": 0.00611156,
        "meta_inclination": 86.3859,
        "meta_ra_of_asc_node": 101.4931,
        "meta_arg_of_pericenter": 135.6602,
        "meta_mean_anomaly": 353.6404,
        "meta_ephemeris_type": 0,
        "meta_classification_type": "U",
        "meta_norad_cat_id": 33881,
        "meta_element_set_no": 999,
        "meta_rev_at_epoch": 87676,
        "meta_bstar": 0.0022055938,
        "meta_mean_motion_dot": 0.0001015,
        "meta_mean_motion_ddot": 0,
        "tle_line1": "1 33881U 97051BA  25358.81736516  .00010150  00000+0  22056-2 0  9998",
        "tle_line2": "2 33881  86.3859 101.4931 0061115 135.6602 353.6404 14.56787950876761"
      },
      "geometry": {
        "type": "Point",
        "coordinates": [
          -84.24554871124656,
          54.3320869663468
        ]
      }
    },
    {
      "type": "Feature",
      "properties": {
        "norad_id": 33884,
        "name": "IRIDIUM 33 DEB",
        "group": "iridium-33-debris",
        "lat": 16.49315963428931,
        "lon": 4.729411445381451,
        "alt_km": 639.1738867631111,
        "timestamp": "2025-12-26T09:30:54.024117+00:00",
        "meta_object_name": "IRIDIUM 33 DEB",
        "meta_object_id": "1997-051BD",
        "meta_epoch": "2025-12-25T23:47:22.730784",
        "meta_mean_motion": 14.77694749,
        "meta_eccentricity": 0.0008799,
        "meta_inclination": 86.3707,
        "meta_ra_of_asc_node": 3.8355,
        "meta_arg_of_pericenter": 270.5089,
        "meta_mean_anomaly": 111.7796,
        "meta_ephemeris_type": 0,
        "meta_classification_type": "U",
        "meta_norad_cat_id": 33884,
        "meta_element_set_no": 999,
        "meta_rev_at_epoch": 89043,
        "meta_bstar": 0.0015388,
        "meta_mean_motion_dot": 0.00011058,
        "meta_mean_motion_ddot": 0,
        "tle_line1": "1 33884U 97051BD  25359.99123531  .00011058  00000+0  15388-2 0  9996",
        "tle_line2": "2 33884  86.3707   3.8355 0008799 270.5089 111.7796 14.77694749890431"
      },
      "geometry": {
        "type": "Point",
        "coordinates": [
          4.729411445381451,
          16.49315963428931
        ]
      }
    },
    {
      "type": "Feature",
      "properties": {
        "norad_id": 33886,
        "name": "IRIDIUM 33 DEB",
        "group": "iridium-33-debris",
        "lat": 64.52322944167545,
        "lon": 69.11093315923742,
        "alt_km": 771.3876588761941,
        "timestamp": "2025-12-26T09:30:54.024128+00:00",
        "meta_object_name": "IRIDIUM 33 DEB",
        "meta_object_id": "1997-051BF",
        "meta_epoch": "2025-12-26T02:42:14.649120",
        "meta_mean_motion": 14.36066905,
        "meta_eccentricity": 0.0013603,
        "meta_inclination": 86.3819,
        "meta_ra_of_asc_node": 61.5994,
        "meta_arg_of_pericenter": 194.4249,
        "meta_mean_anomaly": 204.2921,
        "meta_ephemeris_type": 0,
        "meta_classification_type": "U",
        "meta_norad_cat_id": 33886,
        "meta_element_set_no": 999,
        "meta_rev_at_epoch": 88244,
        "meta_bstar": 0.00017964,
        "meta_mean_motion_dot": 5.42e-06,
        "meta_mean_motion_ddot": 0,
        "tle_line1": "1 33886U 97051BF  25360.11266955  .00000542  00000+0  17964-3 0  9991",
        "tle_line2": "2 33886  86.3819  61.5994 0013603 194.4249 204.2921 14.36066905882441"
      },
      "geometry": {
        "type": "Point",
        "coordinates": [
          69.11093315923742,
          64.52322944167545
        ]
      }
    }
  ]
}